CCSDS_OMM_VERS = 2.0
CREATION_DATE  = 
ORIGINATOR     = 

OBJECT_NAME    = 2025-313Q
OBJECT_ID      = 2025-313Q
CENTER_NAME    = EARTH
REF_FRAME      = TEME
TIME_SYSTEM    = UTC
MEAN_ELEMENT_THEORY = SGP/SGP4

EPOCH          = 2026-01-08T12:57:03.249216
MEAN_MOTION    = 15.20077930
ECCENTRICITY   = .00151572
INCLINATION    = 97.4121
RA_OF_ASC_NODE = 85.8088
ARG_OF_PERICENTER = 200.2148
MEAN_ANOMALY   = 159.8489

EPHEMERIS_TYPE = 0
CLASSIFICATION_TYPE = U
NORAD_CAT_ID   = 67262
ELEMENT_SET_NO = 999
REV_AT_EPOCH   = 167
BSTAR          = .64106614E-3
MEAN_MOTION_DOT = .13827E-3
MEAN_MOTION_DDOT = 0

CCSDS_OMM_VERS = 2.0
CREATION_DATE  = 
ORIGINATOR     = 

OBJECT_NAME    = 2025-313R
OBJECT_ID      = 2025-313R
CENTER_NAME    = EARTH
REF_FRAME      = TEME
TIME_SYSTEM    = UTC
MEAN_ELEMENT_THEORY = SGP/SGP4

EPOCH          = 2026-01-07T16:24:49.716000
MEAN_MOTION    = 15.20025645
ECCENTRICITY   = .00150454
INCLINATION    = 97.4135
RA_OF_ASC_NODE = 84.9811
ARG_OF_PERICENTER = 202.3497
MEAN_ANOMALY   = 157.7085

EPHEMERIS_TYPE = 0
CLASSIFICATION_TYPE = U
NORAD_CAT_ID   = 67263
ELEMENT_SET_NO = 999
REV_AT_EPOCH   = 154
BSTAR          = .49768263E-3
MEAN_MOTION_DOT = .10697E-3
MEAN_MOTION_DDOT = 0

CCSDS_OMM_VERS = 2.0
CREATION_DATE  = 
ORIGINATOR     = 

OBJECT_NAME    = 2025-313S
OBJECT_ID      = 2025-313S
CENTER_NAME    = EARTH
REF_FRAME      = TEME
TIME_SYSTEM    = UTC
MEAN_ELEMENT_THEORY = SGP/SGP4

EPOCH          = 2026-01-08T12:57:35.756352
MEAN_MOTION    = 15.19960251
ECCENTRICITY   = .00150371
INCLINATION    = 97.4204
RA_OF_ASC_NODE = 85.8140
ARG_OF_PERICENTER = 204.5107
MEAN_ANOMALY   = 155.5415

EPHEMERIS_TYPE = 0
CLASSIFICATION_TYPE = U
NORAD_CAT_ID   = 67264
ELEMENT_SET_NO = 999
REV_AT_EPOCH   = 167
BSTAR          = .38006595E-3
MEAN_MOTION_DOT = .8135E-4
MEAN_MOTION_DDOT = 0

CCSDS_OMM_VERS = 2.0
CREATION_DATE  = 
ORIGINATOR     = 

OBJECT_NAME    = 2025-313T
OBJECT_ID      = 2025-313T
CENTER_NAME    = EARTH
REF_FRAME      = TEME
TIME_SYSTEM    = UTC
MEAN_ELEMENT_THEORY = SGP/SGP4

EPOCH          = 2026-01-08T11:22:02.391456
MEAN_MOTION    = 15.20075751
ECCENTRICITY   = .00150018
INCLINATION    = 97.4114
RA_OF_ASC_NODE = 85.7545
ARG_OF_PERICENTER = 200.2893
MEAN_ANOMALY   = 159.7748

EPHEMERIS_TYPE = 0
CLASSIFICATION_TYPE = U
NORAD_CAT_ID   = 67265
ELEMENT_SET_NO = 999
REV_AT_EPOCH   = 166
BSTAR          = .49107829E-3
MEAN_MOTION_DOT = .1057E-3
MEAN_MOTION_DDOT = 0

CCSDS_OMM_VERS = 2.0
CREATION_DATE  = 
ORIGINATOR     = 

OBJECT_NAME    = 2025-313U
OBJECT_ID      = 2025-313U
CENTER_NAME    = EARTH
REF_FRAME      = TEME
TIME_SYSTEM    = UTC
MEAN_ELEMENT_THEORY = SGP/SGP4

EPOCH          = 2026-01-08T11:22:00.664320
MEAN_MOTION    = 15.20079227
ECCENTRICITY   = .00149393
INCLINATION    = 97.4142
RA_OF_ASC_NODE = 85.7576
ARG_OF_PERICENTER = 198.9339
MEAN_ANOMALY   = 161.1342

EPHEMERIS_TYPE = 0
CLASSIFICATION_TYPE = U
NORAD_CAT_ID   = 67266
ELEMENT_SET_NO = 999
REV_AT_EPOCH   = 166
BSTAR          = .55555063E-3
MEAN_MOTION_DOT = .1197E-3
MEAN_MOTION_DDOT = 0

CCSDS_OMM_VERS = 2.0
CREATION_DATE  = 
ORIGINATOR     = 

OBJECT_NAME    = 2025-313V
OBJECT_ID      = 2025-313V
CENTER_NAME    = EARTH
REF_FRAME      = TEME
TIME_SYSTEM    = UTC
MEAN_ELEMENT_THEORY = SGP/SGP4

EPOCH          = 2026-01-08T12:56:31.151616
MEAN_MOTION    = 15.20127419
ECCENTRICITY   = .00141621
INCLINATION    = 97.4123
RA_OF_ASC_NODE = 85.8118
ARG_OF_PERICENTER = 204.4833
MEAN_ANOMALY   = 155.5731

EPHEMERIS_TYPE = 0
CLASSIFICATION_TYPE = U
NORAD_CAT_ID   = 67267
ELEMENT_SET_NO = 999
REV_AT_EPOCH   = 167
BSTAR          = .60732326E-3
MEAN_MOTION_DOT = .13108E-3
MEAN_MOTION_DDOT = 0

CCSDS_OMM_VERS = 2.0
CREATION_DATE  = 
ORIGINATOR     = 

OBJECT_NAME    = 2025-313W
OBJECT_ID      = 2025-313W
CENTER_NAME    = EARTH
REF_FRAME      = TEME
TIME_SYSTEM    = UTC
MEAN_ELEMENT_THEORY = SGP/SGP4

EPOCH          = 2026-01-08T12:56:54.166848
MEAN_MOTION    = 15.20051014
ECCENTRICITY   = .00150929
INCLINATION    = 97.4123
RA_OF_ASC_NODE = 85.8097
ARG_OF_PERICENTER = 199.5440
MEAN_ANOMALY   = 160.5218

EPHEMERIS_TYPE = 0
CLASSIFICATION_TYPE = U
NORAD_CAT_ID   = 67268
ELEMENT_SET_NO = 999
REV_AT_EPOCH   = 167
BSTAR          = .45589973E-3
MEAN_MOTION_DOT = .98E-4
MEAN_MOTION_DDOT = 0

CCSDS_OMM_VERS = 2.0
CREATION_DATE  = 
ORIGINATOR     = 

OBJECT_NAME    = 2025-313X
OBJECT_ID      = 2025-313X
CENTER_NAME    = EARTH
REF_FRAME      = TEME
TIME_SYSTEM    = UTC
MEAN_ELEMENT_THEORY = SGP/SGP4

EPOCH          = 2026-01-08T12:56:23.974368
MEAN_MOTION    = 15.20175837
ECCENTRICITY   = .00149519
INCLINATION    = 97.4149
RA_OF_ASC_NODE = 85.8234
ARG_OF_PERICENTER = 197.9008
MEAN_ANOMALY   = 162.1703

EPHEMERIS_TYPE = 0
CLASSIFICATION_TYPE = U
NORAD_CAT_ID   = 67269
ELEMENT_SET_NO = 999
REV_AT_EPOCH   = 167
BSTAR          = .74784549E-3
MEAN_MOTION_DOT = .16191E-3
MEAN_MOTION_DDOT = 0

CCSDS_OMM_VERS = 2.0
CREATION_DATE  = 
ORIGINATOR     = 

OBJECT_NAME    = 2025-313Y
OBJECT_ID      = 2025-313Y
CENTER_NAME    = EARTH
REF_FRAME      = TEME
TIME_SYSTEM    = UTC
MEAN_ELEMENT_THEORY = SGP/SGP4

EPOCH          = 2026-01-08T12:57:06.465024
MEAN_MOTION    = 15.20053360
ECCENTRICITY   = .00150573
INCLINATION    = 97.4123
RA_OF_ASC_NODE = 85.8199
ARG_OF_PERICENTER = 199.7516
MEAN_ANOMALY   = 160.3138

EPHEMERIS_TYPE = 0
CLASSIFICATION_TYPE = U
NORAD_CAT_ID   = 67270
ELEMENT_SET_NO = 999
REV_AT_EPOCH   = 167
BSTAR          = .55166068E-3
MEAN_MOTION_DOT = .11877E-3
MEAN_MOTION_DDOT = 0

CCSDS_OMM_VERS = 2.0
CREATION_DATE  = 
ORIGINATOR     = 

OBJECT_NAME    = 2025-313Z
OBJECT_ID      = 2025-313Z
CENTER_NAME    = EARTH
REF_FRAME      = TEME
TIME_SYSTEM    = UTC
MEAN_ELEMENT_THEORY = SGP/SGP4

EPOCH          = 2026-01-08T12:57:21.299904
MEAN_MOTION    = 15.19955333
ECCENTRICITY   = .00150229
INCLINATION    = 97.4118
RA_OF_ASC_NODE = 85.8108
ARG_OF_PERICENTER = 195.6256
MEAN_ANOMALY   = 164.4518

EPHEMERIS_TYPE = 0
CLASSIFICATION_TYPE = U
NORAD_CAT_ID   = 67271
ELEMENT_SET_NO = 999
REV_AT_EPOCH   = 167
BSTAR          = .27204746E-3
MEAN_MOTION_DOT = .5801E-4
MEAN_MOTION_DDOT = 0

CCSDS_OMM_VERS = 2.0
CREATION_DATE  = 
ORIGINATOR     = 

OBJECT_NAME    = 2025-313AA
OBJECT_ID      = 2025-313AA
CENTER_NAME    = EARTH
REF_FRAME      = TEME
TIME_SYSTEM    = UTC
MEAN_ELEMENT_THEORY = SGP/SGP4

EPOCH          = 2026-01-08T12:55:56.284032
MEAN_MOTION    = 15.20218619
ECCENTRICITY   = .00148131
INCLINATION    = 97.4123
RA_OF_ASC_NODE = 85.8104
ARG_OF_PERICENTER = 200.0380
MEAN_ANOMALY   = 160.0275

EPHEMERIS_TYPE = 0
CLASSIFICATION_TYPE = U
NORAD_CAT_ID   = 67272
ELEMENT_SET_NO = 999
REV_AT_EPOCH   = 167
BSTAR          = .72985377E-3
MEAN_MOTION_DOT = .15818E-3
MEAN_MOTION_DDOT = 0

CCSDS_OMM_VERS = 2.0
CREATION_DATE  = 
ORIGINATOR     = 

OBJECT_NAME    = 2025-313AB
OBJECT_ID      = 2025-313AB
CENTER_NAME    = EARTH
REF_FRAME      = TEME
TIME_SYSTEM    = UTC
MEAN_ELEMENT_THEORY = SGP/SGP4

EPOCH          = 2026-01-08T12:57:07.195968
MEAN_MOTION    = 15.19956348
ECCENTRICITY   = .00139277
INCLINATION    = 97.4136
RA_OF_ASC_NODE = 85.8125
ARG_OF_PERICENTER = 204.4953
MEAN_ANOMALY   = 155.5622

EPHEMERIS_TYPE = 0
CLASSIFICATION_TYPE = U
NORAD_CAT_ID   = 67273
ELEMENT_SET_NO = 999
REV_AT_EPOCH   = 167
BSTAR          = .19682099E-3
MEAN_MOTION_DOT = .4175E-4
MEAN_MOTION_DDOT = 0

