2025-313Q               
1 67262U 25313Q   26008.53962094  .00013827  00000+0  64107-3 0  9992
2 67262  97.4121  85.8088 0015157 200.2148 159.8489 15.20077930  1674
2025-313R               
1 67263U 25313R   26007.68390875  .00010697  00000+0  49768-3 0  9998
2 67263  97.4135  84.9811 0015045 202.3497 157.7085 15.20025645  1541
2025-313S               
1 67264U 25313S   26008.53999718  .00008135  00000+0  38007-3 0  9993
2 67264  97.4204  85.8140 0015037 204.5107 155.5415 15.19960251  1673
2025-313T               
1 67265U 25313T   26008.47363879  .00010570  00000+0  49108-3 0  9990
2 67265  97.4114  85.7545 0015001 200.2893 159.7748 15.20075751  1666
2025-313U               
1 67266U 25313U   26008.47361880  .00011970  00000+0  55555-3 0  9999
2 67266  97.4142  85.7576 0014939 198.9339 161.1342 15.20079227  1668
2025-313V               
1 67267U 25313V   26008.53924944  .00013108  00000+0  60732-3 0  9991
2 67267  97.4123  85.8118 0014162 204.4833 155.5731 15.20127419  1678
2025-313W               
1 67268U 25313W   26008.53951582  .00009800  00000+0  45590-3 0  9999
2 67268  97.4123  85.8097 0015092 199.5440 160.5218 15.20051014  1679
2025-313X               
1 67269U 25313X   26008.53916637  .00016191  00000+0  74785-3 0  9991
2 67269  97.4149  85.8234 0014951 197.9008 162.1703 15.20175837  1673
2025-313Y               
1 67270U 25313Y   26008.53965816  .00011877  00000+0  55166-3 0  9994
2 67270  97.4123  85.8199 0015057 199.7516 160.3138 15.20053360  1677
2025-313Z               
1 67271U 25313Z   26008.53982986  .00005801  00000+0  27205-3 0  9995
2 67271  97.4118  85.8108 0015022 195.6256 164.4518 15.19955333  1676
2025-313AA              
1 67272U 25313AA  26008.53884588  .00015818  00000+0  72985-3 0  9999
2 67272  97.4123  85.8104 0014813 200.0380 160.0275 15.20218619  1678
2025-313AB              
1 67273U 25313AB  26008.53966662  .00004175  00000+0  19682-3 0  9993
2 67273  97.4136  85.8125 0013927 204.4953 155.5622 15.19956348  1676
